{"type": "FeatureCollection", "features": [ {"type": "Feature", "properties": {"norad_id": 30081, "name": "FENGYUN 1C DEB", "group": "fengyun-1c-debris", "lat": -21.405572122616178, "lon": 149.32774636108152, "alt_km": 958.9650510057199, "timestamp": "2025-12-02T07:10:09.389102+00:00", "meta": {"OBJECT_NAME": "FENGYUN 1C DEB", "OBJECT_ID": "1999-025QJ", "EPOCH": "2025-12-01T19:01:49.221984", "MEAN_MOTION": 13.98255365, "ECCENTRICITY": 0.0076271, "INCLINATION": 98.9225, "RA_OF_ASC_NODE": 332.3666, "ARG_OF_PERICENTER": 9.2674, "MEAN_ANOMALY": 167.9068, "EPHEMERIS_TYPE": 0, "CLASSIFICATION_TYPE": "U", "NORAD_CAT_ID": 30081, "ELEMENT_SET_NO": 999, "REV_AT_EPOCH": 96201, "BSTAR": 0.00033766, "MEAN_MOTION_DOT": 4.5e-06, "MEAN_MOTION_DDOT": 0}, "tle": {"line1": "1 30081U 99025QJ  25335.79293081  .00000450  00000+0  33766-3 0  9990", "line2": "2 30081  98.9225 332.3666 0076271   9.2674 167.9068 13.98255365962011"}}, "geometry": {"type": "Point", "coordinates": [149.32774636108152, -21.405572122616178]}}, {"type": "Feature", "properties": {"norad_id": 30082, "name": "FENGYUN 1C DEB", "group": "fengyun-1c-debris", "lat": 34.015373985153296, "lon": -103.62267623009488, "alt_km": 567.5766377559448, "timestamp": "2025-12-02T07:10:09.389112+00:00", "meta": {"OBJECT_NAME": "FENGYUN 1C DEB", "OBJECT_ID": "1999-025QK", "EPOCH": "2025-12-01T07:13:38.158176", "MEAN_MOTION": 15.14265618, "ECCENTRICITY": 0.00694466, "INCLINATION": 98.8165, "RA_OF_ASC_NODE": 261.2358, "ARG_OF_PERICENTER": 205.1044, "MEAN_ANOMALY": 154.6802, "EPHEMERIS_TYPE": 0, "CLASSIFICATION_TYPE": "U", "NORAD_CAT_ID": 30082, "ELEMENT_SET_NO": 999, "REV_AT_EPOCH": 1120, "BSTAR": 0.0015917816, "MEAN_MOTION_DOT": 0.00030938, "MEAN_MOTION_DDOT": 0}, "tle": {"line1": "1 30082U 99025QK  25335.30113609  .00030938  00000+0  15918-2 0  9997", "line2": "2 30082  98.8165 261.2358 0069446 205.1044 154.6802 15.14265618 11203"}}, "geometry": {"type": "Point", "coordinates": [-103.62267623009488, 34.015373985153296]}}, {"type": "Feature", "properties": {"norad_id": 30086, "name": "FENGYUN 1C DEB", "group": "fengyun-1c-debris", "lat": 37.47448580507759, "lon": -162.9026527373923, "alt_km": 836.2012401703187, "timestamp": "2025-12-02T07:10:09.389122+00:00", "meta": {"OBJECT_NAME": "FENGYUN 1C DEB", "OBJECT_ID": "1999-025QP", "EPOCH": "2025-12-01T14:00:50.610240", "MEAN_MOTION": 14.038078, "ECCENTRICITY": 0.00614738, "INCLINATION": 98.9114, "RA_OF_ASC_NODE": 9.4884, "ARG_OF_PERICENTER": 165.0774, "MEAN_ANOMALY": 326.6738, "EPHEMERIS_TYPE": 0, "CLASSIFICATION_TYPE": "U", "NORAD_CAT_ID": 30086, "ELEMENT_SET_NO": 999, "REV_AT_EPOCH": 96539, "BSTAR": 0.00022920112, "MEAN_MOTION_DOT": 3.24e-06, "MEAN_MOTION_DDOT": 0}, "tle": {"line1": "1 30086U 99025QP  25335.58391910  .00000324  00000+0  22920-3 0  9992", "line2": "2 30086  98.9114   9.4884 0061473 165.0774 326.6738 14.03807800965393"}}, "geometry": {"type": "Point", "coordinates": [-162.9026527373923, 37.47448580507759]}}, {"type": "Feature", "properties": {"norad_id": 30087, "name": "FENGYUN 1C DEB", "group": "fengyun-1c-debris", "lat": -64.90225020368074, "lon": 27.17585986914551, "alt_km": 907.0332615947245, "timestamp": "2025-12-02T07:10:09.389133+00:00", "meta": {"OBJECT_NAME": "FENGYUN 1C DEB", "OBJECT_ID": "1999-025QQ", "EPOCH": "2025-12-01T15:19:51.246048", "MEAN_MOTION": 14.35664987, "ECCENTRICITY": 0.02299978, "INCLINATION": 98.3816, "RA_OF_ASC_NODE": 8.1869, "ARG_OF_PERICENTER": 154.4087, "MEAN_ANOMALY": 328.8949, "EPHEMERIS_TYPE": 0, "CLASSIFICATION_TYPE": "U", "NORAD_CAT_ID": 30087, "ELEMENT_SET_NO": 999, "REV_AT_EPOCH": 98536, "BSTAR": 0.00029309651, "MEAN_MOTION_DOT": 1.094e-05, "MEAN_MOTION_DDOT": 0}, "tle": {"line1": "1 30087U 99025QQ  25335.63878757  .00001094  00000+0  29310-3 0  9993", "line2": "2 30087  98.3816   8.1869 0229997 154.4087 328.8949 14.35664987985361"}}, "geometry": {"type": "Point", "coordinates": [27.17585986914551, -64.90225020368074]}}, {"type": "Feature", "properties": {"norad_id": 30088, "name": "FENGYUN 1C DEB", "group": "fengyun-1c-debris", "lat": -0.3481638377980961, "lon": 140.8420642845971, "alt_km": 794.0361998539092, "timestamp": "2025-12-02T07:10:09.389143+00:00", "meta": {"OBJECT_NAME": "FENGYUN 1C DEB", "OBJECT_ID": "1999-025QR", "EPOCH": "2025-12-01T19:10:43.281120", "MEAN_MOTION": 14.35856503, "ECCENTRICITY": 0.0200927, "INCLINATION": 98.3534, "RA_OF_ASC_NODE": 320.4088, "ARG_OF_PERICENTER": 280.394, "MEAN_ANOMALY": 201.0981, "EPHEMERIS_TYPE": 0, "CLASSIFICATION_TYPE": "U", "NORAD_CAT_ID": 30088, "ELEMENT_SET_NO": 999, "REV_AT_EPOCH": 98515, "BSTAR": 0.00047899, "MEAN_MOTION_DOT": 1.695e-05, "MEAN_MOTION_DDOT": 0}, "tle": {"line1": "1 30088U 99025QR  25335.79911205  .00001695  00000+0  47899-3 0  9996", "line2": "2 30088  98.3534 320.4088 0200927 280.3940 201.0981 14.35856503985153"}}, "geometry": {"type": "Point", "coordinates": [140.8420642845971, -0.3481638377980961]}}, {"type": "Feature", "properties": {"norad_id": 30089, "name": "FENGYUN 1C DEB", "group": "fengyun-1c-debris", "lat": 62.32998614738673, "lon": -135.94380643738526, "alt_km": 836.9779537809609, "timestamp": "2025-12-02T07:10:09.389153+00:00", "meta": {"OBJECT_NAME": "FENGYUN 1C DEB", "OBJECT_ID": "1999-025QS", "EPOCH": "2025-12-01T17:44:14.658720", "MEAN_MOTION": 14.30280371, "ECCENTRICITY": 0.0073033, "INCLINATION": 98.9027, "RA_OF_ASC_NODE": 240.8774, "ARG_OF_PERICENTER": 242.4157, "MEAN_ANOMALY": 181.2988, "EPHEMERIS_TYPE": 0, "CLASSIFICATION_TYPE": "U", "NORAD_CAT_ID": 30089, "ELEMENT_SET_NO": 999, "REV_AT_EPOCH": 98322, "BSTAR": 0.00028683, "MEAN_MOTION_DOT": 7.19e-06, "MEAN_MOTION_DDOT": 0}, "tle": {"line1": "1 30089U 99025QS  25335.73905855  .00000719  00000+0  28683-3 0  9991", "line2": "2 30089  98.9027 240.8774 0073033 242.4157 181.2988 14.30280371983220"}}, "geometry": {"type": "Point", "coordinates": [-135.94380643738526, 62.32998614738673]}}, {"type": "Feature", "properties": {"norad_id": 30090, "name": "FENGYUN 1C DEB", "group": "fengyun-1c-debris", "lat": 4.8413586889827895, "lon": 147.76041003326677, "alt_km": 827.4734023231722, "timestamp": "2025-12-02T07:10:09.389164+00:00", "meta": {"OBJECT_NAME": "FENGYUN 1C DEB", "OBJECT_ID": "1999-025QT", "EPOCH": "2025-12-01T11:17:20.323104", "MEAN_MOTION": 14.28997227, "ECCENTRICITY": 0.00581278, "INCLINATION": 99.4092, "RA_OF_ASC_NODE": 147.672, "ARG_OF_PERICENTER": 143.908, "MEAN_ANOMALY": 282.61, "EPHEMERIS_TYPE": 0, "CLASSIFICATION_TYPE": "U", "NORAD_CAT_ID": 30090, "ELEMENT_SET_NO": 999, "REV_AT_EPOCH": 98109, "BSTAR": 0.00034936383, "MEAN_MOTION_DOT": 8.5e-06, "MEAN_MOTION_DDOT": 0}, "tle": {"line1": "1 30090U 99025QT  25335.47037411  .00000850  00000+0  34936-3 0  9992", "line2": "2 30090  99.4092 147.6720 0058127 143.9080 282.6100 14.28997227981099"}}, "geometry": {"type": "Point", "coordinates": [147.76041003326677, 4.8413586889827895]}}, {"type": "Feature", "properties": {"norad_id": 30092, "name": "FENGYUN 1C DEB", "group": "fengyun-1c-debris", "lat": -52.22970808638617, "lon": 166.8302456710019, "alt_km": 715.084890095758, "timestamp": "2025-12-02T07:10:09.389175+00:00", "meta": {"OBJECT_NAME": "FENGYUN 1C DEB", "OBJECT_ID": "1999-025QV", "EPOCH": "2025-12-01T18:07:11.302752", "MEAN_MOTION": 14.3907389, "ECCENTRICITY": 0.008265, "INCLINATION": 98.9234, "RA_OF_ASC_NODE": 154.5658, "ARG_OF_PERICENTER": 283.1131, "MEAN_ANOMALY": 88.1449, "EPHEMERIS_TYPE": 0, "CLASSIFICATION_TYPE": "U", "NORAD_CAT_ID": 30092, "ELEMENT_SET_NO": 999, "REV_AT_EPOCH": 98591, "BSTAR": 0.00055815, "MEAN_MOTION_DOT": 1.746e-05, "MEAN_MOTION_DDOT": 0}, "tle": {"line1": "1 30092U 99025QV  25335.75499193  .00001746  00000+0  55815-3 0  9998", "line2": "2 30092  98.9234 154.5658 0082650 283.1131  88.1449 14.39073890985915"}}, "geometry": {"type": "Point", "coordinates": [166.8302456710019, -52.22970808638617]}}, {"type": "Feature", "properties": {"norad_id": 30093, "name": "FENGYUN 1C DEB", "group": "fengyun-1c-debris", "lat": -10.225597462300783, "lon": -147.95117191822544, "alt_km": 703.0435730742247, "timestamp": "2025-12-02T07:10:09.389185+00:00", "meta": {"OBJECT_NAME": "FENGYUN 1C DEB", "OBJECT_ID": "1999-025QW", "EPOCH": "2025-12-01T14:49:40.836000", "MEAN_MOTION": 14.43576858, "ECCENTRICITY": 0.00707635, "INCLINATION": 98.8684, "RA_OF_ASC_NODE": 209.726, "ARG_OF_PERICENTER": 10.4282, "MEAN_ANOMALY": 43.1408, "EPHEMERIS_TYPE": 0, "CLASSIFICATION_TYPE": "U", "NORAD_CAT_ID": 30093, "ELEMENT_SET_NO": 999, "REV_AT_EPOCH": 98643, "BSTAR": 0.00093340838, "MEAN_MOTION_DOT": 3.211e-05, "MEAN_MOTION_DDOT": 0}, "tle": {"line1": "1 30093U 99025QW  25335.61783375  .00003211  00000+0  93341-3 0  9997", "line2": "2 30093  98.8684 209.7260 0070763  10.4282  43.1408 14.43576858986437"}}, "geometry": {"type": "Point", "coordinates": [-147.95117191822544, -10.225597462300783]}}, {"type": "Feature", "properties": {"norad_id": 30095, "name": "FENGYUN 1C DEB", "group": "fengyun-1c-debris", "lat": 53.41008838543112, "lon": 88.48935838600774, "alt_km": 678.9630052446355, "timestamp": "2025-12-02T07:10:09.389195+00:00", "meta": {"OBJECT_NAME": "FENGYUN 1C DEB", "OBJECT_ID": "1999-025QY", "EPOCH": "2025-12-01T17:38:34.470816", "MEAN_MOTION": 14.81165116, "ECCENTRICITY": 0.0168873, "INCLINATION": 99.2194, "RA_OF_ASC_NODE": 255.2041, "ARG_OF_PERICENTER": 6.813, "MEAN_ANOMALY": 353.5318, "EPHEMERIS_TYPE": 0, "CLASSIFICATION_TYPE": "U", "NORAD_CAT_ID": 30095, "ELEMENT_SET_NO": 999, "REV_AT_EPOCH": 99172, "BSTAR": 0.0023311, "MEAN_MOTION_DOT": 0.00023192, "MEAN_MOTION_DDOT": 0}, "tle": {"line1": "1 30095U 99025QY  25335.73512119  .00023192  00000+0  23311-2 0  9997", "line2": "2 30095  99.2194 255.2041 0168873   6.8130 353.5318 14.81165116991723"}}, "geometry": {"type": "Point", "coordinates": [88.48935838600774, 53.41008838543112]}}]}